STARLINK-36948          
1 68209U 26053C   26089.50002314  .00240517  00000+0  12264-2 0  9996
2 68209  97.2845 324.7858 0001375 102.8782 286.6388 15.80739263  3258
STARLINK-37119          
1 68210U 26053D   26089.50002314  .00147683  00000+0  76098-3 0  9994
2 68210  97.2842 324.7855 0001330  91.5863 302.2170 15.80752048  3350
STARLINK-37120          
1 68211U 26053E   26089.50002314  .00175241  00000+0  89962-3 0  9990
2 68211  97.2847 324.7880 0001248  82.0035 316.0686 15.80760832  3331
STARLINK-37117          
1 68212U 26053F   26089.50002314  .00229460  00000+0  11721-2 0  9991
2 68212  97.2843 324.7907 0001308  84.0569 318.2977 15.80728827  3356
STARLINK-37116          
1 68213U 26053G   26089.50002314  .00181867  00000+0  93284-3 0  9995
2 68213  97.2845 324.7921 0001376  89.9174 316.6998 15.80762256  3355
STARLINK-35854          
1 68214U 26053H   26089.50002314  .00124094  00000+0  64073-3 0  9999
2 68214  97.2846 324.7944 0001251  82.5902 328.3071 15.80771201  3129
STARLINK-36272          
1 68215U 26053J   26089.50002314  .00184181  00000+0  94468-3 0  9994
2 68215  97.2843 324.7955 0001460  78.2826 336.8869 15.80756626  3255
STARLINK-37014          
1 68216U 26053K   26089.50002314  .00152809  00000+0  78660-3 0  9993
2 68216  97.2842 324.7976 0001465  83.6301 335.8152 15.80760418  3350
STARLINK-37011          
1 68217U 26053L   26089.50002314  .00113750  00000+0  58759-3 0  9993
2 68217  97.2843 324.7998 0001321  98.1321 325.5731 15.80789617  3351
STARLINK-37108          
1 68218U 26053M   26089.50002314  .00180368  00000+0  92595-3 0  9999
2 68218  97.2843 324.8014 0001020  82.2911 345.7017 15.80747234  3357
STARLINK-37106          
1 68219U 26053N   26089.50002314  .00141383  00000+0  73090-3 0  9993
2 68219  97.2839 324.8023 0001057  82.2780 350.0649 15.80697454  3355
STARLINK-37030          
1 68220U 26053P   26089.50002314  .00037629  00000+0  19625-3 0  9996
2 68220  97.2842 324.8051 0001401 102.2477 338.5398 15.80826491  3358
